GLOBALSTAR M068         
1 32266U 07048D   24289.52464972 -.00000024  00000+0  44328-3 0  9992
2 32266  51.9902 328.0608 0000700 335.0748 199.9518 12.62803483786641
GLOBALSTAR M079         
1 37188U 10054A   24289.96303692 -.00000058  00000+0  25572-3 0  9997
2 37188  52.0021 163.2455 0001124  85.1412 287.8800 12.62265937645612
GLOBALSTAR M074         
1 37189U 10054B   24289.90962291 -.00000052  00000+0  28816-3 0  9996
2 37189  52.0000 162.7642 0000701  82.7605 290.2245 12.62257771646214
GLOBALSTAR M076         
1 37190U 10054C   24290.12880390 -.00000054  00000+0  27562-3 0  9992
2 37190  52.0012 162.2525 0000926 100.8100  64.3097 12.62271847646311
GLOBALSTAR M077         
1 37191U 10054D   24289.95309282 -.00000071  00000+0  18022-3 0  9998
2 37191  52.0053 119.5701 0000910  88.8841  58.4658 12.62265641646309
GLOBALSTAR M075         
1 37192U 10054E   24290.13583220 -.00000073  00000+0  17387-3 0  9992
2 37192  51.9938 204.6201 0000617  72.0585  67.0686 12.62267449645556
GLOBALSTAR M073         
1 37193U 10054F   24289.90057618 -.00000066  00000+0  21166-3 0  9995
2 37193  52.0039 118.9681 0000956 100.5374  48.6069 12.62271398646985
GLOBALSTAR M083         
1 37739U 11033A   24289.91431870 -.00000083  00000+0  11621-3 0  9990
2 37739  51.9861  67.9890 0000941  92.5288  59.6268 12.62266341616000
GLOBALSTAR M088         
1 37740U 11033B   24289.89198146 -.00000059  00000+0  25232-3 0  9991
2 37740  51.9748 333.7570 0000506  88.3999  83.1996 12.62263300611540
GLOBALSTAR M091         
1 37741U 11033C   24289.94909453 -.00000075  00000+0  16092-3 0  9991
2 37741  51.9996 296.7040 0000686  64.8923 304.4541 12.62268582612342
GLOBALSTAR M085         
1 37742U 11033D   24290.19371194 -.00000083  00000+0  11868-3 0  9991
2 37742  51.9856 247.2103 0000772  60.8208  41.9358 12.62267454613377
GLOBALSTAR M081         
1 37743U 11033E   24290.22007168 -.00000094  00000+0  52935-4 0  9996
2 37743  51.9950 249.7661 0000801  77.3418  25.5339 12.62271020613414
GLOBALSTAR M089         
1 37744U 11033F   24289.94793184 -.00000093  00000+0  60139-4 0  9998
2 37744  51.9923 204.8710 0000564  91.7830  32.2013 12.62270660613846
GLOBALSTAR M084         
1 38040U 11080A   24289.89103934 -.00000091  00000+0  71432-4 0  9998
2 38040  52.0008  72.1977 0000648 119.5883  46.4675 12.62268797591814
GLOBALSTAR M080         
1 38041U 11080B   24290.18267696 -.00000093  00000+0  62416-4 0  9993
2 38041  52.0060  72.8316 0000884 132.4943  39.1307 12.62267103592115
GLOBALSTAR M082         
1 38042U 11080C   24289.71630566 -.00000093  00000+0  57586-4 0  9993
2 38042  52.0097  29.6725 0000778  65.3916  86.1133 12.62267650592628
GLOBALSTAR M092         
1 38043U 11080D   24289.92681021 -.00000062  00000+0  23456-3 0  9993
2 38043  52.0067 119.3960 0000771  88.3845  60.2768 12.62267930591103
GLOBALSTAR M090         
1 38044U 11080E   24290.19103389 -.00000089  00000+0  82598-4 0  9993
2 38044  51.9914  22.3503 0000683  86.5135 303.5118 12.62268674592843
GLOBALSTAR M086         
1 38045U 11080F   24289.77322378 -.00000089  00000+0  80048-4 0  9995
2 38045  51.9921  24.1536 0001492 126.0626  45.0459 12.62268316592694
GLOBALSTAR M097         
1 39072U 13005A   24290.15829546 -.00000085  00000+0  10250-3 0  9991
2 39072  52.0049 297.2848 0000673  84.6066 275.4877 12.62271895540078
GLOBALSTAR M093         
1 39073U 13005B   24289.73558730 -.00000078  00000+0  14434-3 0  9998
2 39073  51.9810 292.2629 0000705  76.4955 283.5990 12.62265660539894
GLOBALSTAR M094         
1 39074U 13005C   24289.81478545 -.00000088  00000+0  90608-4 0  9992
2 39074  51.9948 206.1582 0000990  71.9759 288.1215 12.62269510541518
GLOBALSTAR M096         
1 39075U 13005D   24290.22389706 -.00000095  00000+0  49714-4 0  9990
2 39075  52.0062 253.2366 0000883  66.7311 293.3649 12.62271614540839
GLOBALSTAR M078         
1 39076U 13005E   24290.19717895  .00000039  00000+0  79651-3 0  9990
2 39076  51.9892 338.1587 0001005  26.1837 333.9081 12.62275912539314
GLOBALSTAR M095         
1 39077U 13005F   24289.82804328 -.00000052  00000+0  28689-3 0  9998
2 39077  51.9818 336.6040 0000878  58.3964 301.6988 12.62266317538917
GLOBALSTAR M087         
1 52888U 22064A   24289.86023224 -.00000039  00000+0  17042-3 0  9996
2 52888  51.9741 147.5953 0008828 315.2548  44.7640 13.37590131113674
